{
"type": "FeatureCollection",
"name": "fire_demo_aoi",
"crs": { "type": "name", "properties": { "name": "urn:ogc:def:crs:OGC:1.3:CRS84" } },
"features": [
{ "type": "Feature", "properties": { "id": 1 }, "geometry": { "type": "MultiPolygon", "coordinates": [ [ [ [ -107.692273024391255, 28.236014087400818 ], [ -107.559944748026837, 28.235680766805441 ], [ -107.561278030408346, 28.086353140076824 ], [ -107.692606344986643, 28.085353178290696 ], [ -107.692273024391255, 28.236014087400818 ] ] ] ] } }
]
}
